{
  "type": "FeatureCollection",
  "features": [
    {
      "type": "Feature",
      "properties": {
        "norad_id": 66909,
        "name": "SILVERSAT",
        "group": "stations",
        "lat": -38.69169108145318,
        "lon": 67.57820440704963,
        "alt_km": 411.37809268676483,
        "timestamp": "2025-12-19T20:42:58.844855+00:00",
        "meta_object_name": "SILVERSAT",
        "meta_object_id": "1998-067XV",
        "meta_epoch": "2025-12-18T14:02:44.424960",
        "meta_mean_motion": 15.52406005,
        "meta_eccentricity": 0.00038673,
        "meta_inclination": 51.6304,
        "meta_ra_of_asc_node": 113.3244,
        "meta_arg_of_pericenter": 263.4051,
        "meta_mean_anomaly": 96.6498,
        "meta_ephemeris_type": 0,
        "meta_classification_type": "U",
        "meta_norad_cat_id": 66909,
        "meta_element_set_no": 999,
        "meta_rev_at_epoch": 252,
        "meta_bstar": 0.00095009624,
        "meta_mean_motion_dot": 0.00059069,
        "meta_mean_motion_ddot": 0,
        "tle_line1": "1 66909U 98067XV  25352.58523640  .00059069  00000+0  95010-3 0  9996",
        "tle_line2": "2 66909  51.6304 113.3244 0003867 263.4051  96.6498 15.52406005  2523"
      },
      "geometry": {
        "type": "Point",
        "coordinates": [
          67.57820440704963,
          -38.69169108145318
        ]
      }
    },
    {
      "type": "Feature",
      "properties": {
        "norad_id": 66910,
        "name": "1998-067XW",
        "group": "stations",
        "lat": -32.244554022625785,
        "lon": 76.95855058476958,
        "alt_km": 412.12918835195615,
        "timestamp": "2025-12-19T20:42:58.844865+00:00",
        "meta_object_name": "1998-067XW",
        "meta_object_id": "1998-067XW",
        "meta_epoch": "2025-12-18T14:00:11.133216",
        "meta_mean_motion": 15.5243188,
        "meta_eccentricity": 0.00043225,
        "meta_inclination": 51.6304,
        "meta_ra_of_asc_node": 113.3129,
        "meta_arg_of_pericenter": 240.7939,
        "meta_mean_anomaly": 119.2619,
        "meta_ephemeris_type": 0,
        "meta_classification_type": "U",
        "meta_norad_cat_id": 66910,
        "meta_element_set_no": 999,
        "meta_rev_at_epoch": 252,
        "meta_bstar": 0.00081329162,
        "meta_mean_motion_dot": 0.00050492,
        "meta_mean_motion_ddot": 0,
        "tle_line1": "1 66910U 98067XW  25352.58346219  .00050492  00000+0  81329-3 0  9992",
        "tle_line2": "2 66910  51.6304 113.3129 0004322 240.7939 119.2619 15.52431880  2523"
      },
      "geometry": {
        "type": "Point",
        "coordinates": [
          76.95855058476958,
          -32.244554022625785
        ]
      }
    },
    {
      "type": "Feature",
      "properties": {
        "norad_id": 66911,
        "name": "1998-067XX",
        "group": "stations",
        "lat": -23.15049106922687,
        "lon": 87.11646735601046,
        "alt_km": 410.61983469700317,
        "timestamp": "2025-12-19T20:42:58.844877+00:00",
        "meta_object_name": "1998-067XX",
        "meta_object_id": "1998-067XX",
        "meta_epoch": "2025-12-18T15:30:03.053088",
        "meta_mean_motion": 15.52835677,
        "meta_eccentricity": 0.00040366,
        "meta_inclination": 51.6301,
        "meta_ra_of_asc_node": 112.9797,
        "meta_arg_of_pericenter": 247.1524,
        "meta_mean_anomaly": 112.904,
        "meta_ephemeris_type": 0,
        "meta_classification_type": "U",
        "meta_norad_cat_id": 66911,
        "meta_element_set_no": 999,
        "meta_rev_at_epoch": 252,
        "meta_bstar": 0.0010034262,
        "meta_mean_motion_dot": 0.00063428,
        "meta_mean_motion_ddot": 0,
        "tle_line1": "1 66911U 98067XX  25352.64586867  .00063428  00000+0  10034-2 0  9992",
        "tle_line2": "2 66911  51.6301 112.9797 0004036 247.1524 112.9040 15.52835677  2520"
      },
      "geometry": {
        "type": "Point",
        "coordinates": [
          87.11646735601046,
          -23.15049106922687
        ]
      }
    },
    {
      "type": "Feature",
      "properties": {
        "norad_id": 66912,
        "name": "1998-067XY",
        "group": "stations",
        "lat": -50.139996156345,
        "lon": 35.41005484150083,
        "alt_km": 413.45093648135844,
        "timestamp": "2025-12-19T20:42:58.844888+00:00",
        "meta_object_name": "1998-067XY",
        "meta_object_id": "1998-067XY",
        "meta_epoch": "2025-12-18T14:08:25.948608",
        "meta_mean_motion": 15.51695277,
        "meta_eccentricity": 0.00040785,
        "meta_inclination": 51.6305,
        "meta_ra_of_asc_node": 113.3494,
        "meta_arg_of_pericenter": 255.7838,
        "meta_mean_anomaly": 104.2699,
        "meta_ephemeris_type": 0,
        "meta_classification_type": "U",
        "meta_norad_cat_id": 66912,
        "meta_element_set_no": 999,
        "meta_rev_at_epoch": 251,
        "meta_bstar": 0.00071420837,
        "meta_mean_motion_dot": 0.00043076,
        "meta_mean_motion_ddot": 0,
        "tle_line1": "1 66912U 98067XY  25352.58918922  .00043076  00000+0  71421-3 0  9992",
        "tle_line2": "2 66912  51.6305 113.3494 0004078 255.7838 104.2699 15.51695277  2515"
      },
      "geometry": {
        "type": "Point",
        "coordinates": [
          35.41005484150083,
          -50.139996156345
        ]
      }
    }
  ]
}